{"spkid": "20457768", "covariance": {"epoch": "2458230.5", "labels": ["e", "q", "tp", "node", "peri", "i"], "data": [["1.097119601567557E-15", "-2.102926742187619E-15", "1.037761482766828E-13", "-4.210392048698161E-14", "5.641203813322866E-14", "-2.261440445550254E-14"], ["-2.102926742187619E-15", "4.037389231216596E-15", "-1.907488054328279E-13", "8.521426582045957E-14", "-1.094120407164818E-13", "4.466443831919855E-14"], ["1.037761482766828E-13", "-1.907488054328279E-13", "1.066756236398464E-10", "-5.844786847562512E-11", "1.199124643919573E-10", "9.16645253362116E-12"], ["-4.210392048698161E-14", "8.521426582045957E-14", "-5.844786847562512E-11", "1.642376259558374E-9", "-1.627054219397873E-9", "-1.139001469429366E-10"], ["5.641203813322866E-14", "-1.094120407164818E-13", "1.199124643919573E-10", "-1.627054219397873E-9", "1.667351402921201E-9", "1.124980226921607E-10"], ["-2.261440445550254E-14", "4.466443831919855E-14", "9.16645253362116E-12", "-1.139001469429366E-10", "1.124980226921607E-10", "3.425278306814579E-11"]], "elements": [{"name": "e", "sigma": 3.3122795799382e-08, "units": null, "title": "eccentricity", "value": ".5246717500134387", "label": "e"}, {"label": "q", "units": "au", "value": ".9225529186191802", "title": "perihelion distance", "sigma": 6.35404535018172e-08, "name": "q"}, {"label": "tp", "name": "tp", "sigma": 1.03283892083832e-05, "value": "2458022.856947304352", "title": "time of perihelion passage", "units": "TDB"}, {"label": "node", "title": "longitude of the ascending node", "value": "308.2374275403408", "units": "deg", "sigma": 4.05262416164931e-05, "name": "om"}, {"label": "peri", "sigma": 4.08332144573655e-05, "name": "w", "units": "deg", "title": "argument of perihelion", "value": "38.32645297210729"}, {"name": "i", "sigma": 5.85258772408802e-06, "title": "inclination", "value": "9.142568265755369", "units": "deg", "label": "i"}]}, "elements": [{"units": null, "title": "eccentricity", "value": ".5246188023070256", "name": "e", "sigma": "3.3129E-8", "label": "e"}, {"label": "a", "sigma": "5.5299E-9", "name": "a", "title": "semi-major axis", "value": "1.941574883035351", "units": "au"}, {"label": "q", "sigma": "6.3585E-8", "name": "q", "title": "perihelion distance", "value": ".9229881933079418", "units": "au"}, {"units": "deg", "value": "9.140394956254884", "title": "inclination; angle with respect to x-y ecliptic plane", "name": "i", "sigma": "5.8514E-6", "label": "i"}, {"sigma": "4.0531E-5", "name": "om", "title": "longitude of the ascending node", "value": "308.1949900796415", "units": "deg", "label": "node"}, {"name": "w", "sigma": "4.0837E-5", "units": "deg", "value": "38.36741016806054", "title": "argument of perihelion", "label": "peri"}, {"units": "deg", "title": "mean anomaly", "value": "78.22634039204492", "sigma": "7.3585E-6", "name": "ma", "label": "M"}, {"label": "tp", "units": "TDB", "value": "2460985.776213380915", "title": "time of perihelion passage", "name": "tp", "sigma": "1.9397E-5"}, {"label": "period", "sigma": "4.2217E-6", "name": "per", "value": "988.165403053057", "title": "sidereal orbital period", "units": "d"}, {"label": "n", "name": "n", "sigma": "1.5564E-9", "units": "deg/d", "title": "mean motion", "value": ".3643114795233027"}, {"label": "Q", "units": "au", "value": "2.96016157276276", "title": "aphelion distance", "name": "ad", "sigma": "8.431E-9"}], "epoch": "2461200.5"}